#aV2010 11 23  0  0   .00000000      96 DD+AD WGS84 FIT  NGA
## 1611 172800.00000000   900.00000000 55523  .0000000000000
+   32     1  2  3  4  5  6  7  8  9 10 11 12 13 14 15 16 17
+         18 19 20 21 22 23 24 25 26 27 28 29 30 31 32  0  0
+          0  0  0  0  0  0  0  0  0  0  0  0  0  0  0  0  0
+          0  0  0  0  0  0  0  0  0  0  0  0  0  0  0  0  0
+          0  0  0  0  0  0  0  0  0  0  0  0  0  0  0  0  0
++         0  0  0  0  0  0  0  0  0  0  0  0  0  0  0  0  0
++         0  0  0  0  0  0  0  0  0  0  0  0  0  0  0  0  0
++         0  0  0  0  0  0  0  0  0  0  0  0  0  0  0  0  0
++         0  0  0  0  0  0  0  0  0  0  0  0  0  0  0  0  0
++         0  0  0  0  0  0  0  0  0  0  0  0  0  0  0  0  0
%c cc cc ccc ccc cccc cccc cccc cccc ccccc ccccc ccccc ccccc
%c cc cc ccc ccc cccc cccc cccc cccc ccccc ccccc ccccc ccccc
%f  0.0000000  0.000000000  0.00000000000  0.000000000000000
%f  0.0000000  0.000000000  0.00000000000  0.000000000000000
%i    0    0    0    0      0      0      0      0         0
%i    0    0    0    0      0      0      0      0         0
/*      NGA, ST. LOUIS,MO.                                  
/*   EPHEMERIS COMPUTED FROM  3 DAYS OF DATA                
/* CCCCCCCCCCCCCCCCCCCCCCCCCCCCCCCCCCCCCCCCCCCCCCCCCCCCCCCCC
/* CCCCCCCCCCCCCCCCCCCCCCCCCCCCCCCCCCCCCCCCCCCCCCCCCCCCCCCCC
*  2010 11 23  8 30   .00000000                                                 
P  1   9113.386818 -14339.759998  20265.137960   -184.825855                    
V  1  11080.204826  23553.080559  11739.981437      -.035439                    
P  2  -9491.336790  13961.253159  20405.207355    304.184904                    
V  2 -25791.669040  -4157.129958  -9624.267644       .024318                    
P  3   8106.178713 -24258.286469  -6892.885862    639.029662                    
V  3   7542.707843  -5293.524245  29526.063222       .050966                    
P  4 -20680.787846   8127.639889  14612.383401    226.752983                    
V  4 -18351.553115  -4782.091185 -22648.912626       .097355                    
P  5    240.101435  23338.621599  12569.194948    -71.815826                    
V  5  -8524.401681 -13799.274608  25853.881153      -.059873                    
P  6  13208.784079 -22763.338350  -2573.564907    411.633867                    
V  6   5097.605108   -750.627559  31055.392856      -.119067                    
P  7 -25763.948314  -5897.303231   3571.425274      -.376190                    
V  7   4754.820991  -1607.104468  31472.259993       .003618                    
P  8 -25589.278138     63.914314  -8101.845961      6.941564                    
V  8  -9670.836558  -3212.263593  29942.171652       .000704                    
P  9  12134.560674  14262.195399 -19384.310190     44.255267                    
V  9 -23382.063036  -1490.023305 -16177.285340       .023520                    
P 10 -10973.783839  12213.424809  20607.158799    -58.602567                    
V 10 -10796.889166 -24476.613160   9033.649042      -.009003                    
P 11 -16459.938960 -12259.197072 -17328.839343   -106.022168                    
V 11  21155.746961  -5027.809206 -16469.889621      -.028078                    
P 12  11363.557829  23994.358520   2272.763686    -51.310024                    
V 12  -1057.028396   3477.346231 -31756.083138       .035052                    
P 13 -15369.017220  -3617.856128  21234.445597    291.218332                    
V 13  17640.837755 -20685.027248   9139.632493      -.011473                    
P 14  20311.914702 -13430.241590 -10277.759493    109.623585                    
V 14  -7085.076342  11429.233433 -28627.652518       .032621                    
P 15   1532.075169  19484.988678 -17901.893359   -180.026599                    
V 15 -14979.815985  17349.740609  17723.961990       .044130                    
P 16   4139.972039 -20346.269369  16428.511059   -128.487120                    
V 16   9113.935661  18872.147289  21386.699081      -.032288                    
P 17 -20312.473519  11602.365005 -12254.210352    177.997110                    
V 17   7925.773567 -13925.635653 -26305.138053       .010152                    
P 18  17566.260069   9165.670664 -17563.841884    106.279082                    
V 18   6650.726595  21925.012121  17424.866378       .021536                    
P 19   1930.692819 -20120.567158 -17051.515627    -85.675894                    
V 19  16044.332545 -14895.949513  19707.056269      -.033994                    
P 20 -13790.526552 -22297.521389   4335.511918     49.412251                    
V 20    800.104114  -6628.047222 -30496.031536      -.002064                    
P 21  26347.804795   5167.514435   2016.746085   -104.361103                    
V 21  -2507.254824   2834.298072  30571.706277      -.027136                    
P 22  15122.311401  -4463.700593 -21208.226600    158.330866                    
V 22   9862.795238  25596.940479   1540.050093      -.009507                    
P 23  -8109.656795 -13554.684479  21298.477977    342.033667                    
V 23  17194.738658 -20951.308384  -7113.169884      -.020815                    
P 24  -8142.752896 -15855.387239 -19728.213164    341.375129                    
V 24  24922.112676   3330.938198 -12662.356487       .034507                    
P 25  16941.463759  15413.118976  13424.425305    -53.417148                    
V 25   4813.235793  16532.729291 -25029.236074      -.023857                    
P 26  -9774.197712  22119.438921 -11042.431818    -56.773556                    
V 26 -10149.966416   8753.356788  28368.244789      -.082872                    
P 27   5473.421571  14508.473391 -20927.357934    210.363690                    
V 27 -28030.381931  -1628.378852  -7975.825199       .036146                    
P 28 -15420.200728    -27.940015 -21171.168111      6.025811                    
V 28  -9417.188941 -26342.857716   6463.380748       .017867                    
P 29  14746.918899   5634.574214  21430.961571    165.580985                    
V 29 -16686.378923  21283.300583   5944.649992       .026336                    
P 30  16063.034733    -93.931724  20752.609466    298.792271                    
V 30  10914.223498  25038.617567  -8159.081634       .033005                    
P 31  17948.230464  -9446.081561  17459.405246     11.540524                    
V 31  21284.585748   4086.828894 -19731.625554       .037261                    
P 32  -6965.490859 -25763.018545  -1770.925648   -137.757632                    
V 32   3280.722844   1682.093311 -31326.428490      -.084125                    
EOF
